NORAD_CAT_ID,OBJECT_NAME,OBJECT_TYPE,EPOCH,MEAN_MOTION,ECCENTRICITY,INCLINATION,RA_OF_ASC_NODE,ARG_OF_PERICENTER,MEAN_ANOMALY,BSTAR,MEAN_MOTION_DOT,MEAN_MOTION_DDOT,TLE_LINE0,TLE_LINE1,TLE_LINE2,SEMIMAJOR_AXIS,PERIOD,APOGEE,PERIGEE,DECAYED
49144.0,STARLINK-3100,PAYLOAD,2023-03-24 14:11:59,14.98360773,0.0002751,70.0011,140.2909,258.0615,102.0236,0.00068579,8.106e-05,0.0,0 STARLINK-3100,1 49144U 21082Q   23083.59165639  .00008106  00000-0  68579-3 0  9998,2 49144  70.0011 140.2909 0002751 258.0615 102.0236 14.98360773 84048,6950.098,96.105,573.875,570.051,0.0
49144.0,STARLINK-3100,PAYLOAD,2023-03-24 20:36:32,14.98327291,0.0002901,70.0012,139.6181,271.1787,88.904,-0.00022979,-2.833e-05,0.0,0 STARLINK-3100,1 49144U 21082Q   23083.85870851 -.00002833  00000-0 -22979-3 0  9993,2 49144  70.0012 139.6181 0002901 271.1787  88.9040 14.98327291 84083,6950.201,96.107,574.083,570.05,0.0
49144.0,STARLINK-3100,PAYLOAD,2023-03-25 04:37:13,14.9829727,0.0003009,70.0011,138.7753,269.9648,90.1167,-0.001278,-0.00015296,0.0,0 STARLINK-3100,1 49144U 21082Q   23084.19251676 -.00015296  00000-0 -12780-2 0  9994,2 49144  70.0011 138.7753 0003009 269.9648  90.1167 14.98297270 84132,6950.294,96.109,574.25,570.068,0.0
49144.0,STARLINK-3100,PAYLOAD,2023-03-25 20:38:35,14.98290008,0.0002849,70.0005,137.091,281.9665,78.1175,0.00049186,5.775e-05,0.0,0 STARLINK-3100,1 49144U 21082Q   23084.86013679  .00005775  00000-0  49186-3 0  9997,2 49144  70.0005 137.0910 0002849 281.9665  78.1175 14.98290008 84234,6950.317,96.11,574.162,570.201,0.0
49144.0,STARLINK-3100,PAYLOAD,2023-03-26 04:39:13,14.98439367,0.000221,70.0004,136.2508,269.5086,90.582,0.0071541,0.00086574,0.0,0 STARLINK-3100,1 49144U 21082Q   23085.19390682  .00086574  00000-0  71541-2 0  9991,2 49144  70.0004 136.2508 0002210 269.5086  90.5820 14.98439367 84281,6949.855,96.1,573.256,570.184,0.0
49144.0,STARLINK-3100,PAYLOAD,2023-03-26 12:39:46,14.98671009,0.0003033,70.0012,135.4095,297.8985,62.1867,0.013349,0.00164423,0.0,0 STARLINK-3100,1 49144U 21082Q   23085.52761733  .00164423  00000-0  13349-1 0  9998,2 49144  70.0012 135.4095 0003033 297.8985  62.1867 14.98671009 84331,6949.139,96.085,573.111,568.896,0.0
49144.0,STARLINK-3100,PAYLOAD,2023-03-26 20:40:13,14.98832043,0.0003568,70.002,134.5667,269.7226,90.3524,0.012298,0.00151831,0.0,0 STARLINK-3100,1 49144U 21082Q   23085.86126509  .00151831  00000-0  12298-1 0  9992,2 49144  70.0020 134.5667 0003568 269.7226  90.3524 14.98832043 84389,6948.641,96.075,572.985,568.027,0.0
49144.0,STARLINK-3100,PAYLOAD,2023-03-27 04:40:40,14.98979078,0.000272,70.0007,133.7232,284.888,75.1978,0.011524,0.0014262,0.0,0 STARLINK-3100,1 49144U 21082Q   23086.19490815  .00142620  00000-0  11524-1 0  9990,2 49144  70.0007 133.7232 0002720 284.8880  75.1978 14.98979078 84436,6948.186,96.065,571.941,568.161,0.0
49144.0,STARLINK-3100,PAYLOAD,2023-03-27 12:41:03,14.99104357,0.0003234,69.9999,132.881,279.1994,80.88,0.0044408,0.00054389,0.0,0 STARLINK-3100,1 49144U 21082Q   23086.52851711  .00054389  00000-0  44408-2 0  9995,2 49144  69.9999 132.8810 0003234 279.1994  80.8800 14.99104357 84482,6947.799,96.057,571.911,567.417,0.0
49144.0,STARLINK-3100,PAYLOAD,2023-03-27 20:41:29,14.99101057,0.0003051,69.9997,132.0391,276.3445,83.7367,0.0033566,0.00041005,0.0,0 STARLINK-3100,1 49144U 21082Q   23086.86214276  .00041005  00000-0  33566-2 0  9995,2 49144  69.9997 132.0391 0003051 276.3445  83.7367 14.99101057 84533,6947.809,96.058,571.794,567.555,0.0
49144.0,STARLINK-3100,PAYLOAD,2023-03-28 06:18:00,14.99069545,0.0002981,69.9996,131.0287,283.6762,76.4066,0.0038274,0.00046769,0.0,0 STARLINK-3100,1 49144U 21082Q   23087.26250850  .00046769  00000-0  38274-2 0  9991,2 49144  69.9996 131.0287 0002981 283.6762  76.4066 14.99069545 84595,6947.907,96.06,571.843,567.701,0.0
49144.0,STARLINK-3100,PAYLOAD,2023-03-28 12:42:29,14.98880616,0.0002363,70.002,130.3569,278.9703,81.1189,-3.8419e-05,-5.58e-06,0.0,0 STARLINK-3100,1 49144U 21082Q   23087.52951376 -.00000558  00000-0 -38419-4 0  9992,2 49144  70.0020 130.3569 0002363 278.9703  81.1189 14.98880616 84630,6948.491,96.072,571.998,568.714,0.0
49144.0,STARLINK-3100,PAYLOAD,2023-03-28 20:43:01,14.9881481,0.0002292,70.0017,129.5142,318.6976,41.4009,-0.0033594,-0.00040449,0.0,0 STARLINK-3100,1 49144U 21082Q   23087.86321740 -.00040449  00000-0 -33594-2 0  9995,2 49144  70.0017 129.5142 0002292 318.6976  41.4009 14.98814810 84686,6948.694,96.076,572.152,568.966,0.0
49144.0,STARLINK-3100,PAYLOAD,2023-03-29 01:31:23,14.9872477,0.000183,69.9992,129.0083,292.5169,67.5797,-0.006574,-0.00078454,0.0,0 STARLINK-3100,1 49144U 21082Q   23088.06346778 -.00078454  00000-0 -65740-2 0  9991,2 49144  69.9992 129.0083 0001830 292.5169  67.5797 14.98724770 84717,6948.972,96.082,572.109,569.566,0.0
49144.0,STARLINK-3100,PAYLOAD,2023-03-29 06:19:46,14.98631572,0.000362,69.9999,128.505,277.2378,82.8369,-0.0076291,-0.00090666,0.0,0 STARLINK-3100,1 49144U 21082Q   23088.26373679 -.00090666  00000-0 -76291-2 0  9995,2 49144  69.9999 128.5050 0003620 277.2378  82.8369 14.98631572 84748,6949.26,96.088,573.641,568.61,0.0
49144.0,STARLINK-3100,PAYLOAD,2023-03-29 12:44:15,14.9859461,0.0002913,69.9993,127.8287,274.0099,86.0727,-0.0071293,-0.00084717,0.0,0 STARLINK-3100,1 49144U 21082Q   23088.53073785 -.00084717  00000-0 -71293-2 0  9997,2 49144  69.9993 127.8287 0002913 274.0099  86.0727 14.98594610 84784,6949.375,96.09,573.264,569.215,0.0
49144.0,STARLINK-3100,PAYLOAD,2023-03-30 03:09:23,14.985109,0.000293,69.9996,126.3136,269.7259,90.3565,-0.0058742,-0.00069815,0.0,0 STARLINK-3100,1 49144U 21082Q   23089.13152127 -.00069815  00000-0 -58742-2 0  9998,2 49144  69.9996 126.3136 0002930 269.7259  90.3565 14.98510900 84870,6949.634,96.095,573.535,569.462,0.0
49144.0,STARLINK-3100,PAYLOAD,2023-03-30 11:10:02,14.984707,0.0002638,70.0003,125.4713,252.7141,107.373,-0.0047632,-0.00056674,0.0,0 STARLINK-3100,1 49144U 21082Q   23089.46530924 -.00056674  00000-0 -47632-2 0  9994,2 49144  70.0003 125.4713 0002638 252.7141 107.3730 14.98470700 84922,6949.758,96.098,573.456,569.789,0.0
49144.0,STARLINK-3100,PAYLOAD,2023-03-30 12:46:10,14.98463344,0.0002753,70.0,125.3029,264.4073,95.6772,-0.0045765,-0.00054464,0.0,0 STARLINK-3100,1 49144U 21082Q   23089.53206902 -.00054464  00000-0 -45765-2 0  9998,2 49144  70.0000 125.3029 0002753 264.4073  95.6772 14.98463344 84932,6949.781,96.098,573.559,569.732,0.0
49144.0,STARLINK-3100,PAYLOAD,2023-03-31 03:11:27,14.983502,0.0002827,69.9998,123.7884,271.6497,88.4339,-0.00044077,-5.351e-05,0.0,0 STARLINK-3100,1 49144U 21082Q   23090.13295182 -.00005351  00000-0 -44077-3 0  9991,2 49144  69.9998 123.7884 0002827 271.6497  88.4339 14.98350200 85024,6950.13,96.106,573.96,570.031,0.0
49144.0,STARLINK-3100,PAYLOAD,2023-03-31 11:12:07,14.98337561,0.0002872,69.9983,122.9461,271.191,88.892,0.00015977,1.814e-05,0.0,0 STARLINK-3100,1 49144U 21082Q   23090.46675787  .00001814  00000-0  15977-3 0  9995,2 49144  69.9983 122.9461 0002872 271.1910  88.8920 14.98337561 85075,6950.17,96.107,574.031,570.038,0.0
49144.0,STARLINK-3100,PAYLOAD,2023-04-01 04:49:37,14.98330732,0.0002889,69.9981,121.0943,269.9078,90.175,5.906e-05,6.12e-06,0.0,0 STARLINK-3100,1 49144U 21082Q   23091.20112314  .00000612  00000-0  59060-4 0  9997,2 49144  69.9981 121.0943 0002889 269.9078  90.1750 14.98330732 85188,6950.191,96.107,574.064,570.048,0.0
49144.0,STARLINK-3100,PAYLOAD,2023-04-01 11:14:09,14.98329001,0.000289,69.9981,120.4211,270.0508,90.032,2.7871e-05,2.4e-06,0.0,0 STARLINK-3100,1 49144U 21082Q   23091.46816437  .00000240  00000-0  27871-4 0  9994,2 49144  69.9981 120.4211 0002890 270.0508  90.0320 14.98329001 85226,6950.196,96.107,574.07,570.052,0.0
49144.0,STARLINK-3100,PAYLOAD,2023-04-01 19:14:49,14.98329169,0.0002926,69.9982,119.5791,274.455,85.6275,2.8988e-05,2.53e-06,0.0,0 STARLINK-3100,1 49144U 21082Q   23091.80196473  .00000253  00000-0  28988-4 0  9997,2 49144  69.9982 119.5791 0002926 274.4550  85.6275 14.98329169 85273,6950.195,96.107,574.094,570.027,0.0
49144.0,STARLINK-3100,PAYLOAD,2023-04-02 06:27:46,14.983323,0.0002956,69.9978,118.4007,274.4095,85.6726,3.4083e-05,3.14e-06,0.0,0 STARLINK-3100,1 49144U 21082Q   23092.26928247  .00000314  00000-0  34083-4 0  9991,2 49144  69.9978 118.4007 0002956 274.4095  85.6726 14.98332300 85343,6950.186,96.107,574.105,569.996,0.0
49144.0,STARLINK-3100,PAYLOAD,2023-04-02 11:16:10,14.98332352,0.000295,69.9979,117.8958,274.7306,85.3516,2.9307e-05,2.57e-06,0.0,0 STARLINK-3100,1 49144U 21082Q   23092.46956200  .00000257  00000-0  29307-4 0  9992,2 49144  69.9979 117.8958 0002950 274.7306  85.3516 14.98332352 85378,6950.186,96.107,574.101,570.0,0.0
49144.0,STARLINK-3100,PAYLOAD,2023-04-02 19:16:50,14.98329947,0.0002987,69.9979,117.0541,274.6987,85.3831,5.2473e-05,5.33e-06,0.0,0 STARLINK-3100,1 49144U 21082Q   23092.80336263  .00000533  00000-0  52473-4 0  9998,2 49144  69.9979 117.0541 0002987 274.6987  85.3831 14.98329947 85424,6950.193,96.107,574.134,569.982,0.0
49144.0,STARLINK-3100,PAYLOAD,2023-04-03 11:18:11,14.98329104,0.0003009,69.9979,115.3708,274.7591,85.3224,9.0688e-05,9.89e-06,0.0,0 STARLINK-3100,1 49144U 21082Q   23093.47096284  .00000989  00000-0  90688-4 0  9993,2 49144  69.9979 115.3708 0003009 274.7591  85.3224 14.98329104 85520,6950.196,96.107,574.152,569.969,0.0
49144.0,STARLINK-3100,PAYLOAD,2023-04-04 11:20:11,14.98336052,0.0003041,69.998,112.8458,274.9192,85.162,0.00010757,1.191e-05,0.0,0 STARLINK-3100,1 49144U 21082Q   23094.47235686  .00001191  00000-0  10757-3 0  9999,2 49144  69.9980 112.8458 0003041 274.9192  85.1620 14.98336052 85675,6950.174,96.107,574.153,569.926,0.0
49144.0,STARLINK-3100,PAYLOAD,2023-04-05 04:57:40,14.98329318,0.0002987,69.998,110.9939,274.8217,85.2601,2.0735e-05,1.54e-06,0.0,0 STARLINK-3100,1 49144U 21082Q   23095.20672237  .00000154  00000-0  20735-4 0  9994,2 49144  69.9980 110.9939 0002987 274.8217  85.2601 14.98329318 85782,6950.195,96.107,574.136,569.984,0.0
